{
"type": "FeatureCollection",
"name": "aoi_epirus",
"crs": { "type": "name", "properties": { "name": "urn:ogc:def:crs:OGC:1.3:CRS84" } },
"features": [
{ "type": "Feature", "properties": { "shapeName": "Ipeiroy", "shapeISO": "", "shapeID": "26713481B784345685192", "shapeGroup": "GRC", "shapeType": "ADM2" }, "geometry": { "type": "Polygon", "coordinates": [ [ [ 20.775086499999794, 40.350249499068774 ], [ 20.773903499999879, 40.348580999068837 ], [ 20.770206499999873, 40.345595499068835 ], [ 20.764754499999881, 40.342839999068843 ], [ 20.763099999999852, 40.340643499068854 ], [ 20.75937199999986, 40.334906999068878 ], [ 20.757819499999837, 40.33189749906893 ], [ 20.757535999999828, 40.330752999068928 ], [ 20.758326499999864, 40.329698999068931 ], [ 20.759334999999815, 40.32899299906888 ], [ 20.76060299999984, 40.327670999068928 ], [ 20.762097499999857, 40.325675499068943 ], [ 20.76423949999981, 40.321762999068987 ], [ 20.764174999999799, 40.321179999068974 ], [ 20.762741499999851, 40.320400499068967 ], [ 20.756234999999833, 40.315823499069012 ], [ 20.755751999999834, 40.315196999068959 ], [ 20.75447449999983, 40.314450499069011 ], [ 20.751059499999794, 40.313363499069048 ], [ 20.749347499999807, 40.313058499068951 ], [ 20.744431499999845, 40.312612999069039 ], [ 20.739239499999869, 40.311611999069008 ], [ 20.738630999999792, 40.31147799906902 ], [ 20.736639999999813, 40.310070499069013 ], [ 20.733682999999843, 40.307595499069052 ], [ 20.733056999999828, 40.306758499068998 ], [ 20.732937499999888, 40.306047999069015 ], [ 20.733094499999822, 40.304917499068999 ], [ 20.733055999999834, 40.30358349906902 ], [ 20.731520999999837, 40.298207999069085 ], [ 20.730544499999862, 40.295797999069087 ], [ 20.727489999999822, 40.292849499069142 ], [ 20.726190999999815, 40.291840499069139 ], [ 20.72078749999983, 40.288232999069109 ], [ 20.71573949999987, 40.284853999069135 ], [ 20.713544999999836, 40.282557999069162 ], [ 20.713002499999895, 40.28124249906913 ], [ 20.710913999999846, 40.275506999069243 ], [ 20.709081999999874, 40.270996499069192 ], [ 20.708121499999805, 40.267559999069263 ], [ 20.7080419999998, 40.26602649906922 ], [ 20.709048499999856, 40.263231499069263 ], [ 20.712199499999798, 40.258461999069276 ], [ 20.71350349999987, 40.257256499069278 ], [ 20.714668499999895, 40.2564654990693 ], [ 20.715918999999889, 40.256027999069346 ], [ 20.721108499999836, 40.253590499069297 ], [ 20.721649999999876, 40.252974999069345 ], [ 20.721557999999817, 40.246799999069339 ], [ 20.721238999999795, 40.239129499069406 ], [ 20.720893999999852, 40.235971499069436 ], [ 20.721171499999809, 40.232403499069463 ], [ 20.721675999999803, 40.22926999906948 ], [ 20.722062499999812, 40.228600999069457 ], [ 20.723697499999826, 40.22702149906943 ], [ 20.724440499999837, 40.225565499069489 ], [ 20.724712499999875, 40.224478999069483 ], [ 20.724441499999831, 40.223689499069458 ], [ 20.721472499999845, 40.216962499069517 ], [ 20.720948999999873, 40.21605599906956 ], [ 20.718539999999859, 40.214573499069566 ], [ 20.712666999999847, 40.209957499069588 ], [ 20.710763499999825, 40.206028999069538 ], [ 20.708414499999801, 40.201612999069567 ], [ 20.706536499999842, 40.199411499069598 ], [ 20.704227499999845, 40.198070999069621 ], [ 20.702942499999839, 40.197547999069613 ], [ 20.701153999999828, 40.197168499069655 ], [ 20.698251999999787, 40.19711249906964 ], [ 20.696857499999872, 40.196863499069636 ], [ 20.690905999999845, 40.195398499069597 ], [ 20.684668999999829, 40.191797499069637 ], [ 20.681319499999802, 40.188972499069685 ], [ 20.679878499999859, 40.186192499069712 ], [ 20.677785999999831, 40.178841499069762 ], [ 20.676472499999861, 40.173809499069726 ], [ 20.676165499999861, 40.172447999069789 ], [ 20.675293999999873, 40.166358499069752 ], [ 20.680210999999833, 40.161180999069849 ], [ 20.682400499999805, 40.159834499069824 ], [ 20.68608799999982, 40.158255499069853 ], [ 20.688315999999865, 40.156828999069852 ], [ 20.692016499999802, 40.15425499906987 ], [ 20.693968499999844, 40.152684999069834 ], [ 20.694203999999878, 40.152200999069855 ], [ 20.69376949999981, 40.150886999069854 ], [ 20.692849999999847, 40.148716999069904 ], [ 20.692125499999854, 40.147403999069894 ], [ 20.688413999999806, 40.145099999069878 ], [ 20.685236999999841, 40.142730499069948 ], [ 20.683586499999883, 40.141002999069933 ], [ 20.683264499999883, 40.140340999069963 ], [ 20.682606999999837, 40.137781999069901 ], [ 20.680797999999818, 40.134203999069996 ], [ 20.678531999999826, 40.130563499069972 ], [ 20.676027499999808, 40.125282999069988 ], [ 20.677915499999887, 40.120759499070019 ], [ 20.678603999999833, 40.116032499070094 ], [ 20.679282499999836, 40.109850999070076 ], [ 20.679358499999818, 40.108276999070064 ], [ 20.678922999999841, 40.107052999070135 ], [ 20.678172499999835, 40.099253499070194 ], [ 20.67654499999982, 40.097418499070166 ], [ 20.672997999999879, 40.09755599907016 ], [ 20.670132999999794, 40.097554499070128 ], [ 20.665492499999797, 40.096254499070128 ], [ 20.661786499999852, 40.093922999070152 ], [ 20.661274999999897, 40.093529999070149 ], [ 20.658305999999822, 40.092354499070233 ], [ 20.650823999999819, 40.090588999070185 ], [ 20.643658999999843, 40.091033999070234 ], [ 20.633940999999837, 40.090336999070196 ], [ 20.621422499999845, 40.087512499070193 ], [ 20.618894499999847, 40.084613499070244 ], [ 20.616137999999854, 40.082093499070218 ], [ 20.610164499999794, 40.0779409990703 ], [ 20.603259499999833, 40.073042999070324 ], [ 20.596121999999824, 40.070823999070321 ], [ 20.591841499999855, 40.071144999070334 ], [ 20.588784499999875, 40.070661999070339 ], [ 20.583480999999825, 40.068861499070323 ], [ 20.574355499999815, 40.066123999070321 ], [ 20.565373499999868, 40.065252999070296 ], [ 20.563513999999845, 40.065207999070303 ], [ 20.559617999999809, 40.065568499070373 ], [ 20.554005499999857, 40.064659499070395 ], [ 20.550916999999838, 40.063831999070324 ], [ 20.549131999999855, 40.063861499070363 ], [ 20.543517999999867, 40.067062499070353 ], [ 20.537613499999821, 40.070868499070293 ], [ 20.532134999999862, 40.073449999070348 ], [ 20.525008999999823, 40.076657499070244 ], [ 20.522770999999835, 40.07761649907026 ], [ 20.518380499999825, 40.07909849907022 ], [ 20.511459999999833, 40.083068999070271 ], [ 20.508117999999804, 40.079779999070297 ], [ 20.507520999999791, 40.079005499070256 ], [ 20.507574499999869, 40.077948499070288 ], [ 20.506056999999807, 40.075745999070321 ], [ 20.503907499999858, 40.073604999070298 ], [ 20.497266999999848, 40.06746799907031 ], [ 20.496688499999852, 40.066541499070318 ], [ 20.495643999999853, 40.065915499070307 ], [ 20.489674499999847, 40.063950999070393 ], [ 20.485087999999877, 40.063588999070369 ], [ 20.482991499999876, 40.063901499070397 ], [ 20.474402999999803, 40.06621149907037 ], [ 20.472201999999861, 40.06737949907037 ], [ 20.470252499999848, 40.068451499070342 ], [ 20.467848999999845, 40.070272999070305 ], [ 20.466270999999843, 40.071650999070272 ], [ 20.465913999999795, 40.0727344990703 ], [ 20.465164999999814, 40.073900499070319 ], [ 20.464150499999896, 40.074368999070266 ], [ 20.462876499999822, 40.074460999070325 ], [ 20.455286499999854, 40.074255499070297 ], [ 20.451749999999809, 40.073782499070319 ], [ 20.449286499999815, 40.073112499070312 ], [ 20.443080499999873, 40.070353499070301 ], [ 20.432905499999805, 40.066379499070337 ], [ 20.43191499999983, 40.065908499070346 ], [ 20.424797999999829, 40.062159999070367 ], [ 20.419594499999882, 40.058007499070364 ], [ 20.415097999999809, 40.05369999907041 ], [ 20.411225999999797, 40.050749999070391 ], [ 20.410016999999868, 40.0491589990704 ], [ 20.409884999999868, 40.048393999070427 ], [ 20.410543999999859, 40.044842999070454 ], [ 20.410947999999891, 40.043698499070452 ], [ 20.41137449999983, 40.042950499070464 ], [ 20.413173999999863, 40.037463999070489 ], [ 20.410774499999832, 40.029710499070539 ], [ 20.409745499999868, 40.027007999070591 ], [ 20.408322499999816, 40.024581499070564 ], [ 20.405385999999854, 40.021450499070603 ], [ 20.403564499999867, 40.019729499070593 ], [ 20.402247499999877, 40.018758999070585 ], [ 20.400150499999828, 40.017702999070607 ], [ 20.398092999999857, 40.015887499070608 ], [ 20.397536999999861, 40.01301399907063 ], [ 20.39761999999989, 40.010914499070651 ], [ 20.398023999999833, 40.009769999070642 ], [ 20.399221499999882, 40.008248999070673 ], [ 20.399348499999817, 40.007460499070703 ], [ 20.39872199999985, 40.005742999070726 ], [ 20.396058999999873, 39.999022499070698 ], [ 20.395030999999811, 39.997432499070683 ], [ 20.394189999999863, 39.996144999070758 ], [ 20.393285999999851, 39.995616999070769 ], [ 20.392275999999864, 39.995373999070736 ], [ 20.388292499999871, 39.995015499070739 ], [ 20.380502999999823, 39.993807999070746 ], [ 20.378801499999817, 39.992876499070782 ], [ 20.375765499999794, 39.989426499070802 ], [ 20.374055499999795, 39.988836999070791 ], [ 20.357880999999821, 39.990045999070816 ], [ 20.334897499999833, 39.991237999070762 ], [ 20.329483499999874, 39.991935499070728 ], [ 20.312236499999887, 39.991022499070787 ], [ 20.315564499999823, 39.983494499070837 ], [ 20.317881499999867, 39.977611499070825 ], [ 20.319151499999869, 39.975454499070807 ], [ 20.320316499999898, 39.974032499070844 ], [ 20.321747999999854, 39.973298499070864 ], [ 20.327205999999816, 39.968459999070859 ], [ 20.328737499999882, 39.964923999070876 ], [ 20.334674999999809, 39.961621999070964 ], [ 20.33826149999982, 39.95763599907098 ], [ 20.341344499999821, 39.953933999071033 ], [ 20.34530799999985, 39.946781999071014 ], [ 20.345623999999884, 39.945805999070991 ], [ 20.345089499999798, 39.944099999071064 ], [ 20.342052999999822, 39.938982999071108 ], [ 20.341112499999809, 39.936683499071023 ], [ 20.339488999999858, 39.931192499071109 ], [ 20.337615999999876, 39.923999999071142 ], [ 20.3396, 39.922006999071172 ], [ 20.342231499999851, 39.919771499071139 ], [ 20.345734499999875, 39.917625499071143 ], [ 20.349584499999835, 39.915902999071186 ], [ 20.354087999999869, 39.914067499071187 ], [ 20.357269499999848, 39.913856999071193 ], [ 20.358317999999826, 39.913205499071204 ], [ 20.362864999999815, 39.909720999071219 ], [ 20.36501399999981, 39.904970999071246 ], [ 20.365492499999878, 39.9031229990713 ], [ 20.37157199999983, 39.896283999071343 ], [ 20.376253499999848, 39.892352999071356 ], [ 20.384698999999813, 39.888588499071382 ], [ 20.383303499999812, 39.882775999071448 ], [ 20.383192499999865, 39.881110999071446 ], [ 20.386096499999802, 39.877242999071441 ], [ 20.387664999999817, 39.874164999071411 ], [ 20.388413499999839, 39.872248999071445 ], [ 20.389653999999805, 39.868947999071452 ], [ 20.39124249999988, 39.866640999071457 ], [ 20.400807999999877, 39.85642249907157 ], [ 20.404556499999877, 39.852183999071549 ], [ 20.40603299999983, 39.850027999071607 ], [ 20.409210999999878, 39.846514999071573 ], [ 20.4118324999998, 39.843961499071604 ], [ 20.412943499999887, 39.843387999071588 ], [ 20.415699999999877, 39.842535499071602 ], [ 20.41664299999983, 39.841726999071668 ], [ 20.417067499999867, 39.840948999071607 ], [ 20.417062499999812, 39.839484999071637 ], [ 20.415079499999873, 39.836144499071651 ], [ 20.413682999999878, 39.835114499071707 ], [ 20.414017999999796, 39.829856999071673 ], [ 20.415106499999887, 39.825224999071686 ], [ 20.413553499999821, 39.820601999071748 ], [ 20.413656999999858, 39.819785499071791 ], [ 20.414180499999826, 39.817995499071749 ], [ 20.414703499999849, 39.816205999071748 ], [ 20.414273499999886, 39.814377999071773 ], [ 20.411597999999849, 39.81105099907176 ], [ 20.40795149999985, 39.806068499071827 ], [ 20.406527499999886, 39.80468949907187 ], [ 20.40476799999988, 39.803482499071826 ], [ 20.400521999999835, 39.800623499071918 ], [ 20.393882999999864, 39.794236499071857 ], [ 20.392766499999851, 39.792733499071943 ], [ 20.388469499999861, 39.787963999071977 ], [ 20.382680999999824, 39.784956999071959 ], [ 20.381515999999884, 39.784839499072007 ], [ 20.376061499999864, 39.785219999071963 ], [ 20.373947999999867, 39.785544499071968 ], [ 20.369562499999834, 39.788223999071882 ], [ 20.363366999999872, 39.792548999071954 ], [ 20.35700099999984, 39.79869399907188 ], [ 20.356367499999823, 39.799466999071882 ], [ 20.347483999999856, 39.804064499071842 ], [ 20.344255999999845, 39.804718999071817 ], [ 20.336951999999823, 39.806195499071848 ], [ 20.330653499999865, 39.807342499071801 ], [ 20.328008999999817, 39.808625499071823 ], [ 20.325363999999819, 39.809908499071824 ], [ 20.319670999999865, 39.809555499071855 ], [ 20.316566999999811, 39.810629499071801 ], [ 20.313569999999824, 39.812078499071774 ], [ 20.308596499999805, 39.814157999071782 ], [ 20.305097499999842, 39.814356999071798 ], [ 20.304073499999848, 39.813756499071772 ], [ 20.302344999999832, 39.812742999071766 ], [ 20.294869999999872, 39.80811799907184 ], [ 20.293173999999784, 39.807144999071802 ], [ 20.289463499999819, 39.804792499071851 ], [ 20.29046349999987, 39.801221999071856 ], [ 20.291254999999815, 39.799594499071858 ], [ 20.29447899999985, 39.796256999071865 ], [ 20.299182499999823, 39.791863499071908 ], [ 20.302617499999819, 39.788613999071913 ], [ 20.304572499999836, 39.786743999071923 ], [ 20.307309499999814, 39.781079999072013 ], [ 20.305612499999825, 39.777135499071967 ], [ 20.303384499999861, 39.774290499072052 ], [ 20.299184999999849, 39.771683499072026 ], [ 20.295838499999803, 39.769285999072089 ], [ 20.292087999999815, 39.76653999907208 ], [ 20.292188499999874, 39.76354399907212 ], [ 20.292398999999882, 39.762685999072083 ], [ 20.293418999999808, 39.760972499072068 ], [ 20.296620999999892, 39.756669499072146 ], [ 20.297942499999809, 39.755275499072084 ], [ 20.299367999999891, 39.754226499072168 ], [ 20.30542399999986, 39.748997499072168 ], [ 20.305485999999835, 39.745671499072159 ], [ 20.306915499999807, 39.743785499072175 ], [ 20.308043499999791, 39.742915999072167 ], [ 20.318447499999891, 39.737504999072243 ], [ 20.320698499999885, 39.736166999072204 ], [ 20.3216849999998, 39.735256999072242 ], [ 20.322039999999856, 39.734556999072232 ], [ 20.322379999999836, 39.732536499072303 ], [ 20.321795999999832, 39.728852499072246 ], [ 20.320881499999842, 39.728093999072293 ], [ 20.31333799999981, 39.725993999072273 ], [ 20.311337499999844, 39.725308999072254 ], [ 20.308747999999817, 39.722040999072341 ], [ 20.305463499999838, 39.71832649907234 ], [ 20.299978999999823, 39.714071499072382 ], [ 20.298579499999843, 39.713643999072353 ], [ 20.295942999999831, 39.713776499072381 ], [ 20.294552999999844, 39.71410999907237 ], [ 20.293157499999843, 39.714078999072385 ], [ 20.29056899999981, 39.713662999072412 ], [ 20.284815999999868, 39.712073499072346 ], [ 20.283518499999893, 39.711567999072365 ], [ 20.280473999999877, 39.707021499072447 ], [ 20.278057499999864, 39.703228499072431 ], [ 20.278190999999893, 39.701170499072425 ], [ 20.273721499999834, 39.697562999072481 ], [ 20.27173349999984, 39.696292999072469 ], [ 20.269729999999804, 39.695849499072466 ], [ 20.267333999999799, 39.695529999072505 ], [ 20.266137999999877, 39.6947439990725 ], [ 20.264681999999841, 39.68879749907255 ], [ 20.263495999999851, 39.683931999072527 ], [ 20.263527499999885, 39.681987499072598 ], [ 20.264421999999822, 39.678485499072593 ], [ 20.264015999999803, 39.674162999072635 ], [ 20.262394499999846, 39.672146999072652 ], [ 20.259214999999848, 39.673361999072625 ], [ 20.255319499999853, 39.674931999072577 ], [ 20.252124999999861, 39.677102499072561 ], [ 20.25029199999981, 39.679736499072625 ], [ 20.249887499999826, 39.680614999072567 ], [ 20.248414499999807, 39.681512999072595 ], [ 20.244823499999871, 39.683191999072598 ], [ 20.242065999999799, 39.684095499072569 ], [ 20.234758499999845, 39.685179999072588 ], [ 20.233617999999801, 39.685320499072581 ], [ 20.232392499999836, 39.68519949907251 ], [ 20.231776999999802, 39.684904999072572 ], [ 20.231269499999829, 39.684388499072561 ], [ 20.229623999999831, 39.682529499072587 ], [ 20.229558499999833, 39.681611499072581 ], [ 20.229823499999817, 39.680765999072619 ], [ 20.231470499999844, 39.679116999072605 ], [ 20.231516999999872, 39.678429499072578 ], [ 20.231174499999863, 39.67774299907262 ], [ 20.228499999999826, 39.675246499072585 ], [ 20.224151999999872, 39.672331499072648 ], [ 20.220998499999805, 39.669346499072667 ], [ 20.218158999999879, 39.664768499072721 ], [ 20.221716999999838, 39.66039949907266 ], [ 20.226310499999855, 39.653613499072733 ], [ 20.228121999999807, 39.651839499072778 ], [ 20.22827799999984, 39.651020499072779 ], [ 20.228157499999817, 39.650331999072755 ], [ 20.227731999999872, 39.649441499072793 ], [ 20.227099999999805, 39.648550499072805 ], [ 20.226089499999862, 39.647828499072759 ], [ 20.21967749999984, 39.646372499072811 ], [ 20.212332499999803, 39.64586699907283 ], [ 20.206156499999857, 39.645525499072825 ], [ 20.197977499999826, 39.645068499072842 ], [ 20.19376699999988, 39.644727999072828 ], [ 20.190492999999883, 39.645268999072826 ], [ 20.188169499999837, 39.646232999072815 ], [ 20.18695449999985, 39.646863999072814 ], [ 20.185738999999824, 39.647494999072784 ], [ 20.177619499999828, 39.648505499072797 ], [ 20.173516499999806, 39.648397999072785 ], [ 20.16587999999981, 39.650950999072712 ], [ 20.15853699999985, 39.653297999072734 ], [ 20.149866499999835, 39.655360999072705 ], [ 20.14908549999987, 39.655195499072704 ], [ 20.138062999999843, 39.654324999072706 ], [ 20.136179999999829, 39.654418999072746 ], [ 20.132209499999853, 39.655247499072736 ], [ 20.12469199999984, 39.657116499072742 ], [ 20.121987499999889, 39.658917499072707 ], [ 20.119447999999821, 39.660588999072701 ], [ 20.113288499999822, 39.664309499072665 ], [ 20.10872749999983, 39.666828999072663 ], [ 20.104109499999829, 39.66921599907262 ], [ 20.096960999999801, 39.674070999072676 ], [ 20.095075499999844, 39.677215999072622 ], [ 20.090487499999842, 39.681624499072576 ], [ 20.08963399999983, 39.682175499072613 ], [ 20.087526499999804, 39.682788499072515 ], [ 20.086525499999848, 39.682835999072545 ], [ 20.084296499999805, 39.682548999072601 ], [ 20.082510499999824, 39.682042999072564 ], [ 20.080384999999819, 39.681025499072597 ], [ 20.075277999999859, 39.68217199907258 ], [ 20.072952499999825, 39.683214499072598 ], [ 20.067059999999799, 39.688954499072494 ], [ 20.066060499999878, 39.689177499072549 ], [ 20.056117499999825, 39.690901999072508 ], [ 20.04848349999985, 39.69158799907251 ], [ 20.042554499999831, 39.691380999072535 ], [ 20.040158499999823, 39.691136999072491 ], [ 20.038823999999806, 39.691275999072531 ], [ 20.034722499999816, 39.692923499072499 ], [ 20.034227499999812, 39.693527999072515 ], [ 20.034014499999856, 39.694430499072482 ], [ 20.033841499999841, 39.696554499072441 ], [ 20.030806499999812, 39.698455999072465 ], [ 20.026745999999847, 39.697857499072512 ], [ 20.021835999999841, 39.695652499072516 ], [ 20.015873999999837, 39.694560999072536 ], [ 20.011717499999833, 39.693638999072462 ], [ 20.009634499999876, 39.692572499072504 ], [ 20.008886499999896, 39.69210949907248 ], [ 20.008812499999809, 39.691291999072533 ], [ 20.009942999999826, 39.691043999072527 ], [ 20.01270299999975, 39.690444999072525 ], [ 20.016473999999747, 39.689845999072539 ], [ 20.019110999999796, 39.689994999072518 ], [ 20.0203744999998, 39.687618499072542 ], [ 20.020702499999761, 39.685622999072557 ], [ 20.02017999999978, 39.684386999072522 ], [ 20.019628499999804, 39.684585499072512 ], [ 20.019471999999823, 39.687301499072518 ], [ 20.018054999999816, 39.688567999072582 ], [ 20.014558499999797, 39.688285999072519 ], [ 20.013328499999808, 39.687656499072567 ], [ 20.014757499999742, 39.683150999072581 ], [ 20.018457499999815, 39.680934999072555 ], [ 20.025825499999804, 39.678809999072605 ], [ 20.034213999999757, 39.680537999072584 ], [ 20.036033999999798, 39.680724999072595 ], [ 20.046408999999802, 39.681485499072551 ], [ 20.052736499999764, 39.68233099907259 ], [ 20.057103999999821, 39.682948999072565 ], [ 20.060376999999825, 39.682880499072581 ], [ 20.061526999999767, 39.681728499072577 ], [ 20.063371499999789, 39.678878499072582 ], [ 20.063941999999741, 39.677718999072582 ], [ 20.064420499999812, 39.675201499072593 ], [ 20.06508449999977, 39.673457999072582 ], [ 20.066734499999779, 39.672748499072583 ], [ 20.075936499999809, 39.671388499072684 ], [ 20.08332649999975, 39.670436999072663 ], [ 20.087224999999815, 39.66898349907266 ], [ 20.091499499999728, 39.66675949907269 ], [ 20.101880999999828, 39.662162499072672 ], [ 20.101781999999808, 39.661521999072704 ], [ 20.098937999999773, 39.657390499072754 ], [ 20.098258999999814, 39.657062499072715 ], [ 20.097737999999779, 39.657440499072713 ], [ 20.097339499999762, 39.659335999072695 ], [ 20.097890999999738, 39.661136499072697 ], [ 20.098226499999789, 39.661815499072652 ], [ 20.097911999999791, 39.662318999072667 ], [ 20.095746999999804, 39.662803499072687 ], [ 20.089418499999759, 39.663654499072663 ], [ 20.087583499999724, 39.663165999072667 ], [ 20.08791749999974, 39.661979499072736 ], [ 20.091954999999754, 39.656524499072688 ], [ 20.094278499999799, 39.654628499072771 ], [ 20.099687499999792, 39.651588499072801 ], [ 20.101548999999803, 39.652461999072756 ], [ 20.101367499999796, 39.652923499072749 ], [ 20.102224499999735, 39.655627999072763 ], [ 20.103624999999798, 39.657266499072719 ], [ 20.104882999999791, 39.658580999072754 ], [ 20.106206999999824, 39.659866499072706 ], [ 20.108171499999749, 39.6605834990727 ], [ 20.113464499999818, 39.659553499072736 ], [ 20.114269499999811, 39.658904999072746 ], [ 20.123717499999767, 39.651915499072743 ], [ 20.133948499999764, 39.644909499072753 ], [ 20.140607999999744, 39.641216499072826 ], [ 20.148503999999807, 39.638816499072874 ], [ 20.156837499999742, 39.638656999072822 ], [ 20.160686499999798, 39.63849249907279 ], [ 20.162166999999815, 39.638225499072824 ], [ 20.167081999999784, 39.635585999072831 ], [ 20.174213499999748, 39.63010399907288 ], [ 20.177674999999802, 39.627616999072913 ], [ 20.181866499999771, 39.625716999072928 ], [ 20.184751499999738, 39.621730999072945 ], [ 20.184880999999795, 39.615841499072928 ], [ 20.185280499999806, 39.607634499073029 ], [ 20.180459999999751, 39.601051499073023 ], [ 20.174321999999748, 39.597934499073048 ], [ 20.169587999999745, 39.592352999073128 ], [ 20.161782499999799, 39.590808499073155 ], [ 20.159250499999821, 39.590014499073106 ], [ 20.160089499999785, 39.588615499073178 ], [ 20.166852499999806, 39.584906499073178 ], [ 20.172351499999781, 39.579005499073205 ], [ 20.16987049999976, 39.574851999073189 ], [ 20.16894899999981, 39.573008999073217 ], [ 20.167434499999825, 39.567470499073295 ], [ 20.163968999999792, 39.559825999073304 ], [ 20.156985999999769, 39.553165499073373 ], [ 20.151046499999765, 39.549834999073411 ], [ 20.146646499999768, 39.543953499073361 ], [ 20.139068499999819, 39.533767499073441 ], [ 20.136205499999811, 39.528419499073472 ], [ 20.136165499999787, 39.527690999073492 ], [ 20.136640499999743, 39.527263499073563 ], [ 20.139777999999811, 39.52683649907349 ], [ 20.142209999999778, 39.527026999073541 ], [ 20.15123349999978, 39.528342999073523 ], [ 20.157897999999825, 39.530589999073534 ], [ 20.149999499999822, 39.529506499073499 ], [ 20.148021499999768, 39.529441999073498 ], [ 20.15037349999977, 39.531341499073534 ], [ 20.154647999999771, 39.533176499073463 ], [ 20.158925999999795, 39.534280999073459 ], [ 20.166553499999754, 39.53623549907352 ], [ 20.167985999999797, 39.536525499073441 ], [ 20.169257499999752, 39.536105999073463 ], [ 20.173927499999795, 39.533351999073517 ], [ 20.178210999999742, 39.529193999073492 ], [ 20.17912099999981, 39.529109999073476 ], [ 20.179633999999798, 39.529739499073514 ], [ 20.178558499999802, 39.530830499073538 ], [ 20.178077499999802, 39.531894499073452 ], [ 20.178069999999799, 39.533218499073485 ], [ 20.180497999999783, 39.532577499073462 ], [ 20.18060299999977, 39.532104499073519 ], [ 20.17869749999976, 39.532256999073525 ], [ 20.17925449999975, 39.530528999073546 ], [ 20.180871999999734, 39.528888499073531 ], [ 20.183538499999738, 39.527373999073554 ], [ 20.188810499999761, 39.525150499073547 ], [ 20.191655999999746, 39.525954999073491 ], [ 20.194450499999768, 39.525496999073518 ], [ 20.195146499999797, 39.525142499073496 ], [ 20.201287999999735, 39.519759999073607 ], [ 20.200437499999794, 39.518497499073604 ], [ 20.198059499999772, 39.518607999073581 ], [ 20.19414149999978, 39.519515999073569 ], [ 20.190931999999787, 39.520343999073617 ], [ 20.18481199999977, 39.521705499073541 ], [ 20.178060499999813, 39.521663499073526 ], [ 20.168769499999787, 39.519768499073599 ], [ 20.169004999999739, 39.518285999073598 ], [ 20.171695499999771, 39.514030999073555 ], [ 20.172405499999808, 39.513614499073554 ], [ 20.17520149999978, 39.513057499073653 ], [ 20.176158999999775, 39.513259999073611 ], [ 20.179944999999769, 39.514987999073576 ], [ 20.181413499999774, 39.516406999073581 ], [ 20.182192999999788, 39.517362999073534 ], [ 20.185445999999825, 39.519202999073613 ], [ 20.190246499999738, 39.519172499073584 ], [ 20.202424999999753, 39.517501999073566 ], [ 20.212360499999811, 39.515140499073588 ], [ 20.216602999999829, 39.514909499073575 ], [ 20.220735499999808, 39.515174999073622 ], [ 20.229839499999805, 39.519691499073531 ], [ 20.231300499999811, 39.519962499073564 ], [ 20.234475499999789, 39.519878499073549 ], [ 20.239838499999795, 39.518223999073619 ], [ 20.251291499999819, 39.514198499073565 ], [ 20.261508999999766, 39.511012999073628 ], [ 20.262635999999752, 39.510139499073645 ], [ 20.264159999999816, 39.50683199907364 ], [ 20.264735999999775, 39.500850499073657 ], [ 20.264724999999757, 39.498958499073723 ], [ 20.26409149999974, 39.496970999073675 ], [ 20.260135499999805, 39.487696999073798 ], [ 20.258294999999755, 39.48413449907374 ], [ 20.257245999999824, 39.483287999073795 ], [ 20.255990999999725, 39.483131499073821 ], [ 20.252916499999799, 39.484256999073764 ], [ 20.246719499999809, 39.48728699907381 ], [ 20.241246999999802, 39.490913499073727 ], [ 20.237617499999786, 39.49259949907367 ], [ 20.230345999999798, 39.493927499073685 ], [ 20.221953499999771, 39.492692999073782 ], [ 20.212241999999776, 39.491278999073764 ], [ 20.215540999999799, 39.487733999073754 ], [ 20.220428499999802, 39.48495099907381 ], [ 20.224793999999786, 39.482621999073771 ], [ 20.228403999999784, 39.479611999073789 ], [ 20.230702499999804, 39.477290999073865 ], [ 20.234848999999784, 39.474577499073895 ], [ 20.239433999999807, 39.47246549907387 ], [ 20.24593949999975, 39.4687159990739 ], [ 20.251008999999804, 39.46435549907391 ], [ 20.256699499999726, 39.46146199907389 ], [ 20.26221749999976, 39.459024499073927 ], [ 20.266864999999807, 39.45711899907392 ], [ 20.270850999999741, 39.455627499073991 ], [ 20.273332499999803, 39.455112499073934 ], [ 20.276866999999772, 39.452766499073995 ], [ 20.277162499999797, 39.451938499073961 ], [ 20.274600999999777, 39.445605999074075 ], [ 20.273790499999777, 39.444633499074087 ], [ 20.272639999999793, 39.444073499074022 ], [ 20.267280499999817, 39.443801999074033 ], [ 20.264222999999788, 39.444064999074023 ], [ 20.257217499999776, 39.445685999074023 ], [ 20.248118499999741, 39.44551149907408 ], [ 20.241238999999759, 39.445777499074055 ], [ 20.236000999999803, 39.445604499074037 ], [ 20.228808499999765, 39.443537499074004 ], [ 20.225261499999831, 39.443137999074068 ], [ 20.221009999999779, 39.443450999074031 ], [ 20.214673999999743, 39.446288999074007 ], [ 20.213742999999802, 39.446429999074027 ], [ 20.212507499999802, 39.446082999074015 ], [ 20.212661499999758, 39.445358499074032 ], [ 20.216375499999746, 39.44036499907407 ], [ 20.218431499999774, 39.437907999074099 ], [ 20.223487499999777, 39.433284499074126 ], [ 20.226094999999781, 39.427638999074134 ], [ 20.227279999999773, 39.422548499074153 ], [ 20.229144499999773, 39.41832699907421 ], [ 20.233195999999793, 39.413825999074241 ], [ 20.235398499999775, 39.410208499074265 ], [ 20.235860999999762, 39.407150499074298 ], [ 20.233526499999783, 39.403250499074318 ], [ 20.236711499999785, 39.401168999074336 ], [ 20.24829699999977, 39.397863499074305 ], [ 20.253251499999809, 39.397254999074335 ], [ 20.257330999999756, 39.397326999074338 ], [ 20.260392999999794, 39.396312499074348 ], [ 20.262747499999826, 39.395135999074348 ], [ 20.26925499999976, 39.390605999074374 ], [ 20.271230499999788, 39.387981499074392 ], [ 20.278903999999827, 39.380750499074423 ], [ 20.27874849999975, 39.376877999074495 ], [ 20.277573999999831, 39.372901999074429 ], [ 20.276139999999753, 39.369935999074535 ], [ 20.276067499999794, 39.367955999074503 ], [ 20.276041999999812, 39.364662999074554 ], [ 20.277873499999739, 39.362859999074509 ], [ 20.281051499999784, 39.360156999074505 ], [ 20.282429999999803, 39.355949999074625 ], [ 20.283226999999755, 39.351626999074632 ], [ 20.281842999999817, 39.350009999074608 ], [ 20.28158049999977, 39.34927349907462 ], [ 20.2831459999998, 39.344188499074633 ], [ 20.283531499999814, 39.34316699907469 ], [ 20.285949499999774, 39.340999499074691 ], [ 20.287292499999783, 39.338962499074732 ], [ 20.288253999999757, 39.335803999074706 ], [ 20.287931499999811, 39.33425499907473 ], [ 20.286149999999754, 39.331584999074721 ], [ 20.286285499999774, 39.329219999074802 ], [ 20.287522999999759, 39.327502999074767 ], [ 20.289374999999783, 39.325512999074796 ], [ 20.295640999999804, 39.320492999074872 ], [ 20.299024499999803, 39.317149999074864 ], [ 20.30067849999979, 39.315734999074863 ], [ 20.301252499999766, 39.315124499074884 ], [ 20.303123499999757, 39.314796499074831 ], [ 20.310167499999761, 39.311427999074866 ], [ 20.312434999999788, 39.309734499074914 ], [ 20.318256499999809, 39.304794499074944 ], [ 20.328008499999779, 39.297786499074952 ], [ 20.332219999999811, 39.295459499074987 ], [ 20.335267999999758, 39.291232999074978 ], [ 20.336975999999773, 39.288663999074991 ], [ 20.338243999999793, 39.286750999075075 ], [ 20.348008999999774, 39.283552499075036 ], [ 20.360635499999731, 39.282626999075042 ], [ 20.373708999999813, 39.281802999075062 ], [ 20.381230999999751, 39.281360499075049 ], [ 20.387162999999759, 39.281722999075114 ], [ 20.387206999999755, 39.283130499075021 ], [ 20.388238999999793, 39.283912499075065 ], [ 20.392669499999826, 39.285346999075095 ], [ 20.394260499999746, 39.285331999075005 ], [ 20.403913499999788, 39.28315349907507 ], [ 20.408937499999809, 39.280517499075117 ], [ 20.420963999999771, 39.276203499075152 ], [ 20.428203499999782, 39.27442549907515 ], [ 20.432660999999733, 39.273807499075183 ], [ 20.433351499999755, 39.274234999075098 ], [ 20.433664499999814, 39.275195999075116 ], [ 20.433436999999728, 39.276735499075116 ], [ 20.433109499999812, 39.278709499075106 ], [ 20.433139999999756, 39.27968599907507 ], [ 20.434434999999791, 39.280696999075047 ], [ 20.436321499999828, 39.281448499075054 ], [ 20.44023699999979, 39.282146499075061 ], [ 20.442353999999803, 39.281551499075043 ], [ 20.444087999999748, 39.280055999075131 ], [ 20.448196499999778, 39.276363499075075 ], [ 20.451116499999799, 39.274001999075104 ], [ 20.452394499999755, 39.273139999075106 ], [ 20.453496999999761, 39.272453499075155 ], [ 20.45739349999975, 39.270950499075141 ], [ 20.459657499999757, 39.270251999075178 ], [ 20.4632454999998, 39.269748499075178 ], [ 20.464280999999769, 39.271788999075149 ], [ 20.4632679999998, 39.273326999075117 ], [ 20.464246999999798, 39.273101999075159 ], [ 20.465007999999788, 39.275207499075094 ], [ 20.464150499999807, 39.277173999075082 ], [ 20.465190999999745, 39.278915499075104 ], [ 20.466590999999763, 39.279552499075116 ], [ 20.470960499999805, 39.279449499075128 ], [ 20.477014499999786, 39.276076999075087 ], [ 20.477601999999813, 39.275573499075087 ], [ 20.47782149999977, 39.274841499075094 ], [ 20.478465999999802, 39.273273499075131 ], [ 20.478183499999787, 39.271777999075134 ], [ 20.474751999999725, 39.267426999075141 ], [ 20.470727999999756, 39.262080999075238 ], [ 20.470979499999782, 39.258437999075198 ], [ 20.471605499999797, 39.255618999075203 ], [ 20.47585699999976, 39.246604999075338 ], [ 20.473206499999748, 39.239312999075388 ], [ 20.474237499999784, 39.229335999075417 ], [ 20.474782999999803, 39.226695999075403 ], [ 20.476073499999821, 39.220820999075443 ], [ 20.478505999999822, 39.216285499075454 ], [ 20.483370499999793, 39.212253499075565 ], [ 20.490005499999796, 39.211047999075575 ], [ 20.501559499999829, 39.206289499075531 ], [ 20.507020999999806, 39.203326999075571 ], [ 20.515355999999784, 39.198686999075633 ], [ 20.522744999999816, 39.194251999075611 ], [ 20.530351499999728, 39.190578499075635 ], [ 20.532005499999801, 39.189410999075676 ], [ 20.540845999999764, 39.182296499075754 ], [ 20.548057999999813, 39.175422499075736 ], [ 20.55078099999978, 39.172961999075739 ], [ 20.552943999999783, 39.169685499075825 ], [ 20.555179499999742, 39.166408499075779 ], [ 20.562604999999774, 39.157325499075881 ], [ 20.568902999999779, 39.15071099907594 ], [ 20.573894499999774, 39.145786499075918 ], [ 20.579067499999777, 39.139938499075974 ], [ 20.582675499999787, 39.135872499076022 ], [ 20.585440499999773, 39.133130999076045 ], [ 20.59195499999975, 39.127235499076079 ], [ 20.595969499999729, 39.123655499076108 ], [ 20.60005399999973, 39.120689499076121 ], [ 20.609173499999773, 39.113252999076195 ], [ 20.617221999999753, 39.111102999076223 ], [ 20.621625999999811, 39.107967499076246 ], [ 20.628570499999746, 39.102359999076299 ], [ 20.635541999999795, 39.096050499076284 ], [ 20.644368999999788, 39.094699999076283 ], [ 20.647498999999772, 39.094951499076302 ], [ 20.650397999999743, 39.09392949907631 ], [ 20.657199999999794, 39.090278499076305 ], [ 20.661777499999729, 39.08719999907634 ], [ 20.676879999999827, 39.075660499076427 ], [ 20.684234499999761, 39.069419999076523 ], [ 20.691989999999745, 39.062347499076516 ], [ 20.696919999999803, 39.057674499076519 ], [ 20.699348499999743, 39.054942999076573 ], [ 20.706054999999797, 39.046456999076604 ], [ 20.708419999999808, 39.042644499076665 ], [ 20.71152899999975, 39.037257999076715 ], [ 20.713943499999772, 39.030181999076767 ], [ 20.715358499999791, 39.022800499076787 ], [ 20.715337499999738, 39.012908999076885 ], [ 20.71416849999974, 39.008121499076843 ], [ 20.71242549999976, 39.003810999076912 ], [ 20.71131149999978, 39.002300499076902 ], [ 20.709344999999786, 39.000598999076914 ], [ 20.708347499999761, 39.000396499076942 ], [ 20.704208499999787, 39.001037499076944 ], [ 20.702007499999748, 39.000156499076979 ], [ 20.699962499999742, 38.997340999077011 ], [ 20.699992999999779, 38.996558999076967 ], [ 20.704084499999738, 38.988971499077003 ], [ 20.705276499999776, 38.986194499077023 ], [ 20.708795499999798, 38.980453499077136 ], [ 20.713507499999757, 38.972930499077172 ], [ 20.717761499999749, 38.966192499077216 ], [ 20.721044499999781, 38.960297999077241 ], [ 20.723429999999805, 38.954391499077261 ], [ 20.725061499999789, 38.951675499077247 ], [ 20.726775999999809, 38.949634499077334 ], [ 20.734449499999755, 38.947391499077277 ], [ 20.739663999999816, 38.945174999077331 ], [ 20.746524999999775, 38.945716999077327 ], [ 20.752977499999776, 38.947467999077325 ], [ 20.757291999999797, 38.950458499077293 ], [ 20.755727499999761, 38.956737499077292 ], [ 20.755366999999772, 38.961574499077152 ], [ 20.75569349999979, 38.963619499077154 ], [ 20.757968999999772, 38.969665499077138 ], [ 20.756327999999797, 38.971320999077143 ], [ 20.752620499999814, 38.972976499077156 ], [ 20.752395499999757, 38.973655499077104 ], [ 20.753598999999777, 38.975219999077133 ], [ 20.755559999999761, 38.979163999077109 ], [ 20.755901499999769, 38.981386499077061 ], [ 20.758542999999747, 38.983825499077057 ], [ 20.759092499999738, 38.982982499077025 ], [ 20.759652999999748, 38.980586999077069 ], [ 20.757680999999835, 38.97613549907711 ], [ 20.753621999999812, 38.974239499077107 ], [ 20.758966499999797, 38.971458499077137 ], [ 20.768015499999777, 38.970670999077178 ], [ 20.778571999999791, 38.970847999077172 ], [ 20.782581999999756, 38.971751999077178 ], [ 20.784984499999766, 38.972125999077136 ], [ 20.787183499999813, 38.971969499077154 ], [ 20.78934549999973, 38.971256499077128 ], [ 20.79228999999982, 38.969463499077122 ], [ 20.795594999999807, 38.964679499077185 ], [ 20.801396499999765, 38.962256999077226 ], [ 20.806413499999827, 38.96064399907717 ], [ 20.816972499999785, 38.955794999077284 ], [ 20.81985449999976, 38.954498499077225 ], [ 20.820997499999745, 38.954562999077226 ], [ 20.826961499999825, 38.956744999077188 ], [ 20.829642999999741, 38.958484499077223 ], [ 20.830552999999803, 38.959558499077175 ], [ 20.828777499999799, 38.968955999077146 ], [ 20.821523499999746, 38.972694499077086 ], [ 20.816972499999782, 38.973643999077126 ], [ 20.812570499999797, 38.972385499077092 ], [ 20.810926499999756, 38.972621999077134 ], [ 20.809764999999754, 38.973129499077118 ], [ 20.807451999999778, 38.974776999077072 ], [ 20.80292349999981, 38.980475499077102 ], [ 20.795922999999767, 38.984939499077022 ], [ 20.785964999999802, 38.990977999077003 ], [ 20.777728999999766, 38.995723999076993 ], [ 20.77503949999981, 38.996631499076933 ], [ 20.773616999999799, 38.99656699907694 ], [ 20.772958499999753, 38.996295999076963 ], [ 20.767520999999807, 38.997179999076934 ], [ 20.761335499999785, 38.998946999076914 ], [ 20.750785999999817, 39.004291499076864 ], [ 20.745296499999739, 39.006091999076887 ], [ 20.742875999999747, 39.008186499076885 ], [ 20.740157999999749, 39.013831999076849 ], [ 20.73958399999977, 39.017654499076826 ], [ 20.742074999999733, 39.0181799990768 ], [ 20.751720499999774, 39.019828499076844 ], [ 20.754609999999762, 39.019927999076813 ], [ 20.757495999999804, 39.024768999076763 ], [ 20.760421999999789, 39.031429499076786 ], [ 20.7624284999998, 39.034938999076708 ], [ 20.764470999999777, 39.037417999076716 ], [ 20.767390999999797, 39.04014199907666 ], [ 20.769647499999806, 39.040805999076696 ], [ 20.773242999999759, 39.041156999076705 ], [ 20.776273499999771, 39.042232499076682 ], [ 20.777692999999804, 39.04346149907667 ], [ 20.779496999999765, 39.046123499076636 ], [ 20.782630999999817, 39.048865999076604 ], [ 20.78493099999978, 39.05247899907657 ], [ 20.786292999999763, 39.055778499076609 ], [ 20.787324999999797, 39.056895999076609 ], [ 20.791057499999805, 39.059116499076552 ], [ 20.793512499999803, 39.060146499076581 ], [ 20.799181499999811, 39.061844499076557 ], [ 20.801572999999802, 39.062000499076511 ], [ 20.807733499999799, 39.06162999907658 ], [ 20.813979999999805, 39.060169999076578 ], [ 20.818118999999786, 39.058517499076551 ], [ 20.821342999999821, 39.055794499076598 ], [ 20.823123999999748, 39.053519999076542 ], [ 20.823545499999803, 39.052543499076577 ], [ 20.823381499999822, 39.05158999907664 ], [ 20.823927499999794, 39.052070499076606 ], [ 20.823623499999773, 39.053603999076557 ], [ 20.821067999999805, 39.056625499076603 ], [ 20.817908999999819, 39.05934149907651 ], [ 20.809921499999735, 39.061740999076534 ], [ 20.808615999999812, 39.062030999076541 ], [ 20.800461999999801, 39.063346999076522 ], [ 20.7936304999998, 39.060870999076492 ], [ 20.789281999999805, 39.059238499076514 ], [ 20.784947499999817, 39.059564999076514 ], [ 20.785499499999744, 39.063510999076506 ], [ 20.787477499999802, 39.073710999076425 ], [ 20.788207999999756, 39.07471099907648 ], [ 20.789918999999752, 39.075767499076399 ], [ 20.795531999999746, 39.077464999076426 ], [ 20.798732999999739, 39.077316499076389 ], [ 20.802166499999792, 39.077835999076385 ], [ 20.801555499999775, 39.079421999076423 ], [ 20.790266499999813, 39.08154649907641 ], [ 20.786828999999788, 39.082073499076401 ], [ 20.783548999999741, 39.081888499076378 ], [ 20.775708499999741, 39.082222499076401 ], [ 20.772153999999805, 39.08326749907642 ], [ 20.773671999999817, 39.08487699907635 ], [ 20.778609999999826, 39.086616499076385 ], [ 20.784831999999756, 39.088617499076378 ], [ 20.789117999999739, 39.090457999076328 ], [ 20.790448999999729, 39.091277999076318 ], [ 20.789588999999804, 39.096442999076331 ], [ 20.783311999999761, 39.098575499076276 ], [ 20.778311499999731, 39.098645999076254 ], [ 20.773761999999802, 39.096904999076273 ], [ 20.772967999999832, 39.097106999076289 ], [ 20.771873499999774, 39.098754999076291 ], [ 20.772189999999764, 39.103194999076287 ], [ 20.772540999999762, 39.103725499076219 ], [ 20.779260499999737, 39.105003499076247 ], [ 20.780612999999825, 39.10435499907625 ], [ 20.782134999999808, 39.10254299907627 ], [ 20.784926499999763, 39.098939999076229 ], [ 20.792323999999788, 39.095851999076274 ], [ 20.7936304999998, 39.095687999076297 ], [ 20.796958999999781, 39.096534499076256 ], [ 20.799384499999739, 39.099303999076248 ], [ 20.800105999999747, 39.10208149907627 ], [ 20.799431499999805, 39.103788499076266 ], [ 20.798549499999751, 39.105632999076192 ], [ 20.795493999999799, 39.108863999076171 ], [ 20.794454499999766, 39.108249999076271 ], [ 20.792106499999825, 39.10479749907627 ], [ 20.790832499999752, 39.104240499076276 ], [ 20.789392499999803, 39.104190999076266 ], [ 20.788759499999738, 39.104942499076273 ], [ 20.785247999999807, 39.107948499076187 ], [ 20.785680999999755, 39.1081429990762 ], [ 20.789258999999767, 39.104854499076275 ], [ 20.790242999999734, 39.104530499076283 ], [ 20.791635499999757, 39.105037499076218 ], [ 20.792497999999796, 39.106044999076261 ], [ 20.79231849999978, 39.106910499076193 ], [ 20.792453499999759, 39.109184499076214 ], [ 20.79466799999976, 39.109939499076248 ], [ 20.795844999999797, 39.109286999076161 ], [ 20.800387499999765, 39.105272999076249 ], [ 20.80449299999982, 39.103122499076235 ], [ 20.813203999999814, 39.105231999076238 ], [ 20.811668499999776, 39.106948999076181 ], [ 20.80852499999974, 39.107364499076198 ], [ 20.807044999999764, 39.106784999076211 ], [ 20.802007499999782, 39.107429499076233 ], [ 20.799384499999736, 39.109134499076262 ], [ 20.797992999999796, 39.110229999076196 ], [ 20.791833999999746, 39.10992449907625 ], [ 20.791093999999806, 39.111167999076173 ], [ 20.790210499999805, 39.111816499076184 ], [ 20.78988449999974, 39.112510499076137 ], [ 20.792180999999772, 39.114215999076201 ], [ 20.793939499999791, 39.115172999076151 ], [ 20.799157999999736, 39.117271499076118 ], [ 20.801564999999762, 39.117473499076141 ], [ 20.803006999999791, 39.117034999076196 ], [ 20.80454999999974, 39.116752499076171 ], [ 20.805448499999741, 39.116264499076124 ], [ 20.808445499999735, 39.110251999076247 ], [ 20.816366499999823, 39.110602999076235 ], [ 20.821024499999755, 39.109258499076205 ], [ 20.825763499999734, 39.106250499076218 ], [ 20.828252999999748, 39.103870499076208 ], [ 20.832127999999823, 39.100763499076294 ], [ 20.834260999999739, 39.099078999076269 ], [ 20.839158999999725, 39.0961034990763 ], [ 20.840827999999796, 39.093680999076355 ], [ 20.841403999999759, 39.09267049907632 ], [ 20.841184499999809, 39.0921859990763 ], [ 20.839725999999743, 39.090308999076349 ], [ 20.833409499999807, 39.082425999076349 ], [ 20.825055999999812, 39.077819999076389 ], [ 20.819244499999741, 39.078346499076432 ], [ 20.814239499999786, 39.078616999076409 ], [ 20.812494499999818, 39.078155499076431 ], [ 20.812606999999804, 39.075713999076413 ], [ 20.818904999999805, 39.074187499076416 ], [ 20.823446999999824, 39.073264999076471 ], [ 20.824338999999821, 39.074142499076437 ], [ 20.827855999999763, 39.074916999076464 ], [ 20.832841999999747, 39.075683499076483 ], [ 20.836114999999751, 39.075366999076401 ], [ 20.836910499999753, 39.074935999076438 ], [ 20.842189499999822, 39.069593499076483 ], [ 20.851598499999753, 39.065994499076531 ], [ 20.856642999999782, 39.064295499076486 ], [ 20.863197999999823, 39.063064499076503 ], [ 20.862079499999737, 39.056438499076584 ], [ 20.860054999999832, 39.051902999076603 ], [ 20.856553999999786, 39.046470499076655 ], [ 20.855128999999749, 39.045718999076662 ], [ 20.859056499999813, 39.044070999076652 ], [ 20.85960199999974, 39.043319499076645 ], [ 20.857928999999785, 39.039680499076681 ], [ 20.858020999999756, 39.038680999076668 ], [ 20.859372999999799, 39.033664499076693 ], [ 20.862266499999755, 39.032237999076706 ], [ 20.865905499999752, 39.03115449907677 ], [ 20.872295499999822, 39.032230499076704 ], [ 20.873592499999756, 39.034522999076749 ], [ 20.873026499999817, 39.036922499076667 ], [ 20.871465499999804, 39.039081499076666 ], [ 20.867526999999807, 39.041522999076619 ], [ 20.864807999999808, 39.043336999076665 ], [ 20.864955999999797, 39.047336499076629 ], [ 20.865111999999826, 39.050863499076584 ], [ 20.866027999999762, 39.05523699907657 ], [ 20.866873999999775, 39.056026499076616 ], [ 20.868455499999801, 39.057420999076598 ], [ 20.874781999999769, 39.058787499076494 ], [ 20.881887499999792, 39.061192999076567 ], [ 20.890523999999751, 39.057742999076517 ], [ 20.892727499999815, 39.05731199907656 ], [ 20.893150499999823, 39.05781949907653 ], [ 20.893120499999824, 39.058440999076531 ], [ 20.891112499999771, 39.06227499907655 ], [ 20.889097499999764, 39.065349499076468 ], [ 20.888055999999739, 39.068854999076486 ], [ 20.88821399999976, 39.074390499076429 ], [ 20.892339999999816, 39.074932999076466 ], [ 20.896485499999802, 39.073940499076421 ], [ 20.900766499999811, 39.070407999076473 ], [ 20.90844349999978, 39.068099999076466 ], [ 20.917484499999812, 39.065791999076474 ], [ 20.919669999999808, 39.064920499076493 ], [ 20.924053999999813, 39.062784499076521 ], [ 20.926250499999735, 39.061076999076469 ], [ 20.929818999999764, 39.05920799907657 ], [ 20.935059999999801, 39.06189999907653 ], [ 20.942584999999809, 39.06611999907652 ], [ 20.94606949999973, 39.068057999076451 ], [ 20.947257999999742, 39.067908499076445 ], [ 20.946649499999754, 39.065116999076501 ], [ 20.945697999999808, 39.064559499076481 ], [ 20.942485999999789, 39.065162499076536 ], [ 20.9418849999998, 39.064956499076551 ], [ 20.940290499999765, 39.063247499076546 ], [ 20.938976499999757, 39.06121449907657 ], [ 20.936692499999783, 39.055145999076601 ], [ 20.935453499999763, 39.049553499076652 ], [ 20.935907499999754, 39.046188499076592 ], [ 20.937982499999759, 39.0432244990767 ], [ 20.94087749999975, 39.03948499907667 ], [ 20.942231499999782, 39.035021999076719 ], [ 20.942320999999726, 39.03037099907678 ], [ 20.948581499999825, 39.030944999076752 ], [ 20.954503999999758, 39.035773999076682 ], [ 20.954869999999758, 39.036151999076694 ], [ 20.958183499999826, 39.036014499076693 ], [ 20.960084999999772, 39.037154999076712 ], [ 20.962093499999774, 39.037460499076673 ], [ 20.964011999999794, 39.037212499076681 ], [ 20.966916999999729, 39.036369499076748 ], [ 20.968867999999766, 39.03526699907674 ], [ 20.971618499999792, 39.032996999076694 ], [ 20.972612499999794, 39.032092999076696 ], [ 20.972017499999769, 39.029205499076724 ], [ 20.97272499999978, 39.02695099907681 ], [ 20.9738019999998, 39.024433499076785 ], [ 20.982822499999742, 39.018169499076812 ], [ 20.988002999999825, 39.017229499076848 ], [ 20.999353499999813, 39.012782999076855 ], [ 21.001671499999759, 39.012134499076851 ], [ 21.009691499999779, 39.01015849907688 ], [ 21.022210999999764, 39.006416499076913 ], [ 21.022914999999749, 39.006515499076919 ], [ 21.023700499999816, 39.007465499076922 ], [ 21.024783999999762, 39.008086999076916 ], [ 21.028274499999817, 39.007804999076853 ], [ 21.032508999999795, 39.00603849907688 ], [ 21.040860999999747, 39.002235499076939 ], [ 21.044312999999821, 39.002844999076927 ], [ 21.053970499999789, 39.004718999076886 ], [ 21.056894499999789, 39.00637049907693 ], [ 21.048546999999758, 39.010015499076871 ], [ 21.038213499999809, 39.014194499076837 ], [ 21.035165999999816, 39.016170499076807 ], [ 21.035756999999773, 39.01823799907681 ], [ 21.040748499999768, 39.01752149907685 ], [ 21.043641999999814, 39.016574999076781 ], [ 21.045142999999751, 39.015514499076801 ], [ 21.046840499999782, 39.01339349907682 ], [ 21.051591999999815, 39.01099399907681 ], [ 21.059875499999787, 39.008353999076888 ], [ 21.06253149999981, 39.008125499076904 ], [ 21.064466499999774, 39.00810249907687 ], [ 21.066432999999769, 39.00919699907692 ], [ 21.068593999999781, 39.012439999076896 ], [ 21.064815499999789, 39.014613999076808 ], [ 21.063010999999783, 39.014594999076841 ], [ 21.060573499999805, 39.015029999076852 ], [ 21.054742999999764, 39.016666499076798 ], [ 21.045854499999823, 39.019794499076788 ], [ 21.043714499999769, 39.022064499076819 ], [ 21.043002999999789, 39.023467999076772 ], [ 21.044578499999766, 39.02524599907678 ], [ 21.047534999999783, 39.026485499076756 ], [ 21.054393499999797, 39.027343999076727 ], [ 21.05718999999981, 39.028457499076737 ], [ 21.060718499999812, 39.032609999076755 ], [ 21.060184499999774, 39.033794499076691 ], [ 21.058856999999801, 39.0351559990767 ], [ 21.057286499999805, 39.036374499076715 ], [ 21.055633999999763, 39.034461999076669 ], [ 21.055017499999824, 39.034400999076681 ], [ 21.054719999999811, 39.034976999076726 ], [ 21.05457299999982, 39.038119999076699 ], [ 21.054994499999786, 39.038680999076682 ], [ 21.057000999999808, 39.039191999076671 ], [ 21.066161999999817, 39.040801999076642 ], [ 21.068385499999756, 39.039458999076643 ], [ 21.070665999999797, 39.036414999076683 ], [ 21.072176999999765, 39.031493499076745 ], [ 21.072160499999733, 39.026366499076765 ], [ 21.072963499999823, 39.024261499076779 ], [ 21.074037499999783, 39.023746499076807 ], [ 21.074678499999795, 39.023753999076796 ], [ 21.075149499999775, 39.02419649907673 ], [ 21.076322499999751, 39.027271499076761 ], [ 21.077184499999749, 39.0308724990767 ], [ 21.07547099999973, 39.037587999076649 ], [ 21.073257499999819, 39.044555499076687 ], [ 21.073077999999796, 39.045379499076638 ], [ 21.074689999999766, 39.048942499076624 ], [ 21.080169499999819, 39.053115999076589 ], [ 21.082879999999822, 39.053920999076581 ], [ 21.086988499999766, 39.053882499076593 ], [ 21.091436499999823, 39.053451499076544 ], [ 21.099760499999771, 39.052020999076596 ], [ 21.101287999999766, 39.051650999076628 ], [ 21.104079999999769, 39.050414999076594 ], [ 21.10689349999976, 39.047591999076623 ], [ 21.107190999999776, 39.046752999076595 ], [ 21.10514999999975, 39.047370499076614 ], [ 21.093320999999783, 39.048797999076669 ], [ 21.090490499999799, 39.048434999076562 ], [ 21.090684999999816, 39.047900999076624 ], [ 21.100291999999783, 39.047691499076606 ], [ 21.108608499999733, 39.046146499076585 ], [ 21.106519499999724, 39.053394499076532 ], [ 21.095603999999764, 39.062095499076534 ], [ 21.098188499999729, 39.065101499076555 ], [ 21.087236499999765, 39.080390999076393 ], [ 21.09021749999977, 39.083667999076333 ], [ 21.10909449999971, 39.086276999076368 ], [ 21.094367999999722, 39.100539999076268 ], [ 21.117835999999741, 39.117259999076154 ], [ 21.118415999999769, 39.120681999076119 ], [ 21.131234999999752, 39.125281999076094 ], [ 21.134202999999747, 39.12316149907609 ], [ 21.145026999999779, 39.12218099907615 ], [ 21.160951499999765, 39.128185499076068 ], [ 21.17798449999972, 39.12563299907611 ], [ 21.184314499999708, 39.134597999076007 ], [ 21.191526499999753, 39.135894999076015 ], [ 21.194913999999727, 39.129371499076044 ], [ 21.202245499999712, 39.123969999076103 ], [ 21.206178499999698, 39.12453099907605 ], [ 21.209850499999767, 39.122295499076117 ], [ 21.22193699999972, 39.130763999076059 ], [ 21.234271999999716, 39.131637499076035 ], [ 21.271142999999721, 39.117335999076147 ], [ 21.290708499999784, 39.126754999076105 ], [ 21.296792999999798, 39.133342999076092 ], [ 21.324239499999749, 39.145606999076001 ], [ 21.32347699999972, 39.160579499075901 ], [ 21.333806999999734, 39.161929999075795 ], [ 21.355090999999788, 39.17125699907583 ], [ 21.373546499999758, 39.174735999075786 ], [ 21.371419999999759, 39.180244499075712 ], [ 21.364961499999712, 39.179904999075781 ], [ 21.363250499999712, 39.18636699907573 ], [ 21.353730999999794, 39.190120499075661 ], [ 21.356046499999795, 39.194701999075626 ], [ 21.350269499999737, 39.200618999075608 ], [ 21.351346999999713, 39.21356949907554 ], [ 21.365520499999779, 39.22509749907551 ], [ 21.367316999999737, 39.234527499075405 ], [ 21.378789999999732, 39.238120999075349 ], [ 21.382709499999759, 39.24554049907529 ], [ 21.393384999999761, 39.24612399907533 ], [ 21.397194499999745, 39.254035999075249 ], [ 21.41146449999971, 39.261851999075219 ], [ 21.427037999999786, 39.284148999075008 ], [ 21.428674999999782, 39.295840999075011 ], [ 21.426326999999748, 39.29785899907499 ], [ 21.414926499999716, 39.299274499074961 ], [ 21.412048499999706, 39.304023999074971 ], [ 21.415071499999723, 39.317764499074805 ], [ 21.409921499999758, 39.324397499074792 ], [ 21.410075999999751, 39.328094499074773 ], [ 21.400647999999766, 39.329292499074761 ], [ 21.402557499999748, 39.333495999074721 ], [ 21.397550499999713, 39.335178499074743 ], [ 21.395562999999761, 39.339229499074698 ], [ 21.398454499999726, 39.345107999074678 ], [ 21.391936999999768, 39.347728499074691 ], [ 21.389772499999733, 39.354537999074594 ], [ 21.376466499999776, 39.358443999074552 ], [ 21.362241499999715, 39.358302999074603 ], [ 21.354999499999764, 39.356048499074603 ], [ 21.344413999999748, 39.358241999074536 ], [ 21.328394499999721, 39.356769499074559 ], [ 21.316718999999754, 39.36013049907455 ], [ 21.315746499999758, 39.356628499074624 ], [ 21.306144499999764, 39.357700499074603 ], [ 21.303342999999778, 39.36190049907453 ], [ 21.293979999999756, 39.363902999074554 ], [ 21.294055999999738, 39.368652499074493 ], [ 21.288861999999771, 39.367698499074514 ], [ 21.272468499999789, 39.377406999074459 ], [ 21.270940499999753, 39.381644999074453 ], [ 21.277356999999707, 39.39481349907431 ], [ 21.27403999999979, 39.397147999074356 ], [ 21.271522499999769, 39.408824999074284 ], [ 21.267005499999776, 39.411761999074265 ], [ 21.267211999999716, 39.416286499074225 ], [ 21.25195299999973, 39.42314549907416 ], [ 21.242477499999723, 39.432689499074094 ], [ 21.233953499999743, 39.433345999074156 ], [ 21.228236999999709, 39.436969999074115 ], [ 21.201612499999744, 39.462985999073943 ], [ 21.198659999999787, 39.470901999073824 ], [ 21.194381499999807, 39.474601999073883 ], [ 21.215045999999763, 39.480746999073787 ], [ 21.215352999999766, 39.498912999073696 ], [ 21.196197499999787, 39.495479499073753 ], [ 21.190946499999729, 39.498885999073671 ], [ 21.181022499999731, 39.499541999073678 ], [ 21.190345999999778, 39.516059999073562 ], [ 21.203380499999746, 39.522403499073555 ], [ 21.200597999999729, 39.527065499073537 ], [ 21.20326799999976, 39.532294999073464 ], [ 21.194553499999742, 39.555145499073397 ], [ 21.194951999999766, 39.576133499073272 ], [ 21.183976999999764, 39.603011499073084 ], [ 21.185010999999779, 39.609348499072986 ], [ 21.180979999999767, 39.616492999073003 ], [ 21.165960499999787, 39.615421499073008 ], [ 21.152791999999749, 39.618091499072911 ], [ 21.152645499999796, 39.625484499072876 ], [ 21.14869499999978, 39.631290499072911 ], [ 21.154386499999781, 39.639167999072804 ], [ 21.154412999999753, 39.649047999072742 ], [ 21.143264999999737, 39.65294999907271 ], [ 21.139543499999753, 39.657832999072689 ], [ 21.127986999999777, 39.664577499072728 ], [ 21.122110499999739, 39.670222999072621 ], [ 21.120412999999804, 39.679416499072616 ], [ 21.123060499999745, 39.683978999072522 ], [ 21.141296499999758, 39.687763499072545 ], [ 21.145168499999762, 39.698150499072497 ], [ 21.158925999999774, 39.700538499072472 ], [ 21.162223999999714, 39.714629999072386 ], [ 21.167213499999718, 39.717761999072358 ], [ 21.176563499999741, 39.716026499072377 ], [ 21.183473499999756, 39.711333999072373 ], [ 21.191804999999793, 39.712978499072364 ], [ 21.196176499999737, 39.71738049907232 ], [ 21.202550999999765, 39.716705499072347 ], [ 21.211030999999743, 39.708869999072441 ], [ 21.227145999999774, 39.708251999072381 ], [ 21.229425499999728, 39.700370999072447 ], [ 21.236211999999743, 39.696014499072454 ], [ 21.246076499999784, 39.695106499072544 ], [ 21.250873499999763, 39.697654999072448 ], [ 21.254527999999713, 39.708167999072444 ], [ 21.246644999999749, 39.712886999072431 ], [ 21.247031999999795, 39.724437499072273 ], [ 21.234885999999808, 39.733428999072245 ], [ 21.22509999999977, 39.731582499072246 ], [ 21.233772499999777, 39.755607499072113 ], [ 21.22772199999973, 39.766460499072082 ], [ 21.225196999999714, 39.782039499071985 ], [ 21.228774999999729, 39.787101999071965 ], [ 21.226316499999704, 39.804153499071838 ], [ 21.229642999999783, 39.808567499071806 ], [ 21.238075499999741, 39.803832999071886 ], [ 21.251203499999711, 39.807479999071802 ], [ 21.247243999999753, 39.812492499071823 ], [ 21.24810049999974, 39.814918499071815 ], [ 21.25096899999976, 39.81969049907174 ], [ 21.258302499999733, 39.823188499071698 ], [ 21.264667499999774, 39.836303499071661 ], [ 21.264518499999792, 39.844405999071618 ], [ 21.26187349999979, 39.8470304990716 ], [ 21.263386999999788, 39.852222499071559 ], [ 21.27531799999975, 39.856116999071517 ], [ 21.287042499999771, 39.854732499071559 ], [ 21.29087049999978, 39.852195499071534 ], [ 21.296484499999767, 39.857772999071571 ], [ 21.272769999999781, 39.877712499071386 ], [ 21.25771349999976, 39.876136999071413 ], [ 21.251930499999823, 39.882732999071344 ], [ 21.239610499999735, 39.884509999071376 ], [ 21.23141499999976, 39.889308999071311 ], [ 21.224941499999801, 39.886645999071348 ], [ 21.215217499999746, 39.887355999071289 ], [ 21.206388499999754, 39.880569499071406 ], [ 21.197522999999769, 39.877376499071367 ], [ 21.181545499999743, 39.87867349907139 ], [ 21.163326499999808, 39.858398499071455 ], [ 21.145751999999813, 39.866077499071459 ], [ 21.135633499999802, 39.867053999071416 ], [ 21.129234499999789, 39.86470799907147 ], [ 21.102082999999737, 39.878413999071419 ], [ 21.095706999999756, 39.878417999071402 ], [ 21.098520499999758, 39.883102499071356 ], [ 21.096143499999815, 39.892677999071324 ], [ 21.086717499999814, 39.901069499071227 ], [ 21.090783999999747, 39.908954499071214 ], [ 21.082362999999766, 39.923122499071091 ], [ 21.084295499999794, 39.93560399907107 ], [ 21.076925499999813, 39.949347999070937 ], [ 21.071183999999757, 39.954009999070919 ], [ 21.060237999999764, 39.95773299907092 ], [ 21.050721999999773, 39.964572999070874 ], [ 21.049775999999749, 39.968269499070821 ], [ 21.04535299999981, 39.968131499070871 ], [ 21.050874499999775, 39.972789499070842 ], [ 21.047708499999747, 39.974097999070835 ], [ 21.044875999999775, 39.980556499070765 ], [ 21.035459999999805, 39.986972999070765 ], [ 21.027901999999816, 39.98884949907076 ], [ 21.028444499999761, 39.99318299907074 ], [ 21.023021499999768, 39.993858499070676 ], [ 21.034656499999752, 40.001785499070678 ], [ 21.041724999999829, 40.000869499070653 ], [ 21.050948999999815, 39.994132999070743 ], [ 21.057437999999813, 39.99221799907076 ], [ 21.063596499999825, 39.993633499070711 ], [ 21.06866649999974, 39.997871499070676 ], [ 21.078208999999788, 40.012912499070588 ], [ 21.082736999999803, 40.015910999070606 ], [ 21.079408499999737, 40.020885999070536 ], [ 21.079302499999759, 40.03340899907046 ], [ 21.085387999999767, 40.05471099907038 ], [ 21.071977499999782, 40.063289499070294 ], [ 21.052165999999787, 40.066875499070314 ], [ 21.03363999999976, 40.058028999070359 ], [ 21.009530999999821, 40.056251499070378 ], [ 21.006417499999781, 40.062206499070314 ], [ 20.998288999999755, 40.068675999070251 ], [ 20.997653999999795, 40.074760499070216 ], [ 20.988650999999795, 40.083934999070237 ], [ 20.990812499999763, 40.093425999070149 ], [ 20.988721999999811, 40.101524499070138 ], [ 20.974044999999748, 40.111713499070071 ], [ 20.97190849999981, 40.120834499070007 ], [ 20.9565504999998, 40.133323499069881 ], [ 20.968526999999799, 40.134776999069885 ], [ 20.975383499999737, 40.143897999069921 ], [ 21.004241999999813, 40.154361499069815 ], [ 21.003181499999819, 40.163291999069806 ], [ 20.998010499999804, 40.167766499069714 ], [ 20.998315999999768, 40.190067499069599 ], [ 20.99627299999975, 40.192383499069628 ], [ 20.984670499999783, 40.191749999069614 ], [ 20.981536999999779, 40.193534999069598 ], [ 20.991325999999798, 40.20244599906956 ], [ 20.990855999999809, 40.208453999069526 ], [ 20.981857499999833, 40.218501999069517 ], [ 20.968730999999799, 40.223880999069479 ], [ 20.95769299999974, 40.251445999069318 ], [ 20.940055999999814, 40.259967999069261 ], [ 20.937845499999792, 40.27611149906916 ], [ 20.926709999999744, 40.286418999069127 ], [ 20.919564999999736, 40.297656999069069 ], [ 20.897021999999783, 40.313598499068952 ], [ 20.875825999999812, 40.333690499068865 ], [ 20.874944499999799, 40.356479499068705 ], [ 20.868488999999823, 40.376745999068682 ], [ 20.855839999999777, 40.375278499068664 ], [ 20.853785999999825, 40.367503499068711 ], [ 20.847399999999734, 40.360727999068665 ], [ 20.842887999999803, 40.341798499068837 ], [ 20.816070999999795, 40.336262499068845 ], [ 20.790345999999733, 40.341364499068817 ], [ 20.775086499999794, 40.350249499068774 ] ] ] } }
]
}
